{"type": "FeatureCollection", "features": [ {"type": "Feature", "properties": {"norad_id": 66343, "name": "STARLINK-35467", "group": "last-30-days", "lat": -15.600062787332886, "lon": 27.982598772523673, "alt_km": 445.2973681933572, "timestamp": "2025-12-02T08:59:31.501985+00:00", "meta": {"OBJECT_NAME": "STARLINK-35467", "OBJECT_ID": "2025-253AA", "EPOCH": "2025-12-02T04:00:03.998880", "MEAN_MOTION": 15.40634524, "ECCENTRICITY": 0.0001461, "INCLINATION": 43.0008, "RA_OF_ASC_NODE": 46.6157, "ARG_OF_PERICENTER": 269.2132, "MEAN_ANOMALY": 352.8482, "EPHEMERIS_TYPE": 0, "CLASSIFICATION_TYPE": "U", "NORAD_CAT_ID": 66343, "ELEMENT_SET_NO": 999, "REV_AT_EPOCH": 523, "BSTAR": 0.0018396, "MEAN_MOTION_DOT": 0.00077155, "MEAN_MOTION_DDOT": 0}, "tle": {"line1": "1 66343U 25253AA  25336.16671295  .00077155  00000+0  18396-2 0  9998", "line2": "2 66343  43.0008  46.6157 0001461 269.2132 352.8482 15.40634524  5231"}}, "geometry": {"type": "Point", "coordinates": [27.982598772523673, -15.600062787332886]}}, {"type": "Feature", "properties": {"norad_id": 66344, "name": "STARLINK-35511", "group": "last-30-days", "lat": 33.50051691929594, "lon": 90.48530106018191, "alt_km": 409.8861535856404, "timestamp": "2025-12-02T08:59:31.501996+00:00", "meta": {"OBJECT_NAME": "STARLINK-35511", "OBJECT_ID": "2025-253AB", "EPOCH": "2025-12-01T14:12:36.561312", "MEAN_MOTION": 15.50616705, "ECCENTRICITY": 0.00018213, "INCLINATION": 43.0007, "RA_OF_ASC_NODE": 49.8062, "ARG_OF_PERICENTER": 276.3676, "MEAN_ANOMALY": 83.6977, "EPHEMERIS_TYPE": 0, "CLASSIFICATION_TYPE": "U", "NORAD_CAT_ID": 66344, "ELEMENT_SET_NO": 999, "REV_AT_EPOCH": 520, "BSTAR": 0.0019436811, "MEAN_MOTION_DOT": 0.00115539, "MEAN_MOTION_DDOT": 0}, "tle": {"line1": "1 66344U 25253AB  25335.59208983  .00115539  00000+0  19437-2 0  9991", "line2": "2 66344  43.0007  49.8062 0001821 276.3676  83.6977 15.50616705  5200"}}, "geometry": {"type": "Point", "coordinates": [90.48530106018191, 33.50051691929594]}}, {"type": "Feature", "properties": {"norad_id": 66345, "name": "STARLINK-35440", "group": "last-30-days", "lat": 31.57415315228808, "lon": 86.49737094250989, "alt_km": 410.13062259867274, "timestamp": "2025-12-02T08:59:31.502006+00:00", "meta": {"OBJECT_NAME": "STARLINK-35440", "OBJECT_ID": "2025-253AC", "EPOCH": "2025-12-01T14:13:35.829120", "MEAN_MOTION": 15.50608418, "ECCENTRICITY": 0.0001817, "INCLINATION": 43.0007, "RA_OF_ASC_NODE": 49.8098, "ARG_OF_PERICENTER": 280.4353, "MEAN_ANOMALY": 79.6303, "EPHEMERIS_TYPE": 0, "CLASSIFICATION_TYPE": "U", "NORAD_CAT_ID": 66345, "ELEMENT_SET_NO": 999, "REV_AT_EPOCH": 520, "BSTAR": 0.0017916955, "MEAN_MOTION_DOT": 0.0010632, "MEAN_MOTION_DDOT": 0}, "tle": {"line1": "1 66345U 25253AC  25335.59277580  .00106320  00000+0  17917-2 0  9990", "line2": "2 66345  43.0007  49.8098 0001817 280.4353  79.6303 15.50608418  5203"}}, "geometry": {"type": "Point", "coordinates": [86.49737094250989, 31.57415315228808]}}, {"type": "Feature", "properties": {"norad_id": 66346, "name": "STARLINK-35482", "group": "last-30-days", "lat": 32.63355288982286, "lon": 88.63833334396557, "alt_km": 411.8937565693277, "timestamp": "2025-12-02T08:59:31.502017+00:00", "meta": {"OBJECT_NAME": "STARLINK-35482", "OBJECT_ID": "2025-253AD", "EPOCH": "2025-12-01T14:13:05.225376", "MEAN_MOTION": 15.50646624, "ECCENTRICITY": 0.00050181, "INCLINATION": 43, "RA_OF_ASC_NODE": 49.8084, "ARG_OF_PERICENTER": 260.8558, "MEAN_ANOMALY": 99.1735, "EPHEMERIS_TYPE": 0, "CLASSIFICATION_TYPE": "U", "NORAD_CAT_ID": 66346, "ELEMENT_SET_NO": 999, "REV_AT_EPOCH": 520, "BSTAR": 0.0020503581, "MEAN_MOTION_DOT": 0.00122174, "MEAN_MOTION_DDOT": 0}, "tle": {"line1": "1 66346U 25253AD  25335.59242159  .00122174  00000+0  20504-2 0  9996", "line2": "2 66346  43.0000  49.8084 0005018 260.8558  99.1735 15.50646624  5205"}}, "geometry": {"type": "Point", "coordinates": [88.63833334396557, 32.63355288982286]}}, {"type": "Feature", "properties": {"norad_id": 66347, "name": "STARLINK-35438", "group": "last-30-days", "lat": 34.54002654734296, "lon": 92.83672966593525, "alt_km": 409.1268350211776, "timestamp": "2025-12-02T08:59:31.502027+00:00", "meta": {"OBJECT_NAME": "STARLINK-35438", "OBJECT_ID": "2025-253AE", "EPOCH": "2025-12-01T04:55:34.258368", "MEAN_MOTION": 15.506197, "ECCENTRICITY": 7.85e-05, "INCLINATION": 42.9997, "RA_OF_ASC_NODE": 52.0629, "ARG_OF_PERICENTER": 269.9026, "MEAN_ANOMALY": 90.1745, "EPHEMERIS_TYPE": 0, "CLASSIFICATION_TYPE": "U", "NORAD_CAT_ID": 66347, "ELEMENT_SET_NO": 999, "REV_AT_EPOCH": 514, "BSTAR": 0.0016452, "MEAN_MOTION_DOT": 0.00097525, "MEAN_MOTION_DDOT": 0}, "tle": {"line1": "1 66347U 25253AE  25335.20525762  .00097525  00000+0  16452-2 0  9997", "line2": "2 66347  42.9997  52.0629 0000785 269.9026  90.1745 15.50619700  5146"}}, "geometry": {"type": "Point", "coordinates": [92.83672966593525, 34.54002654734296]}}, {"type": "Feature", "properties": {"norad_id": 66348, "name": "STARLINK-35849", "group": "last-30-days", "lat": -0.9363410830947011, "lon": 147.15157856618941, "alt_km": 365.7174030103688, "timestamp": "2025-12-02T08:59:31.502039+00:00", "meta": {"OBJECT_NAME": "STARLINK-35849", "OBJECT_ID": "2025-254A", "EPOCH": "2025-12-02T04:00:03.998880", "MEAN_MOTION": 15.68913644, "ECCENTRICITY": 0.0001208, "INCLINATION": 53.1591, "RA_OF_ASC_NODE": 327.473, "ARG_OF_PERICENTER": 79.3106, "MEAN_ANOMALY": 6.8549, "EPHEMERIS_TYPE": 0, "CLASSIFICATION_TYPE": "U", "NORAD_CAT_ID": 66348, "ELEMENT_SET_NO": 999, "REV_AT_EPOCH": 522, "BSTAR": -0.019594, "MEAN_MOTION_DOT": -0.02021918, "MEAN_MOTION_DDOT": 0}, "tle": {"line1": "1 66348U 25254A   25336.16671295 -.02021918  00000+0 -19594-1 0  9994", "line2": "2 66348  53.1591 327.4730 0001208  79.3106   6.8549 15.68913644  5224"}}, "geometry": {"type": "Point", "coordinates": [147.15157856618941, -0.9363410830947011]}}, {"type": "Feature", "properties": {"norad_id": 66349, "name": "STARLINK-35848", "group": "last-30-days", "lat": -2.470376597975509, "lon": 148.2990358031071, "alt_km": 365.9072306849084, "timestamp": "2025-12-02T08:59:31.502049+00:00", "meta": {"OBJECT_NAME": "STARLINK-35848", "OBJECT_ID": "2025-254B", "EPOCH": "2025-12-02T04:00:03.998880", "MEAN_MOTION": 15.68911397, "ECCENTRICITY": 0.0001183, "INCLINATION": 53.1588, "RA_OF_ASC_NODE": 327.4689, "ARG_OF_PERICENTER": 82.1023, "MEAN_ANOMALY": 5.9826, "EPHEMERIS_TYPE": 0, "CLASSIFICATION_TYPE": "U", "NORAD_CAT_ID": 66349, "ELEMENT_SET_NO": 999, "REV_AT_EPOCH": 522, "BSTAR": -0.019585, "MEAN_MOTION_DOT": -0.02020888, "MEAN_MOTION_DDOT": 0}, "tle": {"line1": "1 66349U 25254B   25336.16671295 -.02020888  00000+0 -19585-1 0  9990", "line2": "2 66349  53.1588 327.4689 0001183  82.1023   5.9826 15.68911397  5227"}}, "geometry": {"type": "Point", "coordinates": [148.2990358031071, -2.470376597975509]}}, {"type": "Feature", "properties": {"norad_id": 66350, "name": "STARLINK-35829", "group": "last-30-days", "lat": -4.001340356591874, "lon": 149.44737801033753, "alt_km": 366.0985026326589, "timestamp": "2025-12-02T08:59:31.502059+00:00", "meta": {"OBJECT_NAME": "STARLINK-35829", "OBJECT_ID": "2025-254C", "EPOCH": "2025-12-02T04:00:03.998880", "MEAN_MOTION": 15.68912127, "ECCENTRICITY": 0.0001247, "INCLINATION": 53.1589, "RA_OF_ASC_NODE": 327.4646, "ARG_OF_PERICENTER": 84.5252, "MEAN_ANOMALY": 5.4731, "EPHEMERIS_TYPE": 0, "CLASSIFICATION_TYPE": "U", "NORAD_CAT_ID": 66350, "ELEMENT_SET_NO": 999, "REV_AT_EPOCH": 522, "BSTAR": -0.019558, "MEAN_MOTION_DOT": -0.02018572, "MEAN_MOTION_DDOT": 0}, "tle": {"line1": "1 66350U 25254C   25336.16671295 -.02018572  00000+0 -19558-1 0  9999", "line2": "2 66350  53.1589 327.4646 0001247  84.5252   5.4731 15.68912127  5226"}}, "geometry": {"type": "Point", "coordinates": [149.44737801033753, -4.001340356591874]}}, {"type": "Feature", "properties": {"norad_id": 66351, "name": "STARLINK-35828", "group": "last-30-days", "lat": -5.5324961349596125, "lon": 150.60179762822892, "alt_km": 366.29591813147636, "timestamp": "2025-12-02T08:59:31.502069+00:00", "meta": {"OBJECT_NAME": "STARLINK-35828", "OBJECT_ID": "2025-254D", "EPOCH": "2025-12-02T04:00:03.998880", "MEAN_MOTION": 15.68919587, "ECCENTRICITY": 0.0001137, "INCLINATION": 53.159, "RA_OF_ASC_NODE": 327.4607, "ARG_OF_PERICENTER": 83.9101, "MEAN_ANOMALY": 8.0038, "EPHEMERIS_TYPE": 0, "CLASSIFICATION_TYPE": "U", "NORAD_CAT_ID": 66351, "ELEMENT_SET_NO": 999, "REV_AT_EPOCH": 519, "BSTAR": -0.019679, "MEAN_MOTION_DOT": -0.02030017, "MEAN_MOTION_DDOT": 0}, "tle": {"line1": "1 66351U 25254D   25336.16671295 -.02030017  00000+0 -19679-1 0  9992", "line2": "2 66351  53.1590 327.4607 0001137  83.9101   8.0038 15.68919587  5192"}}, "geometry": {"type": "Point", "coordinates": [150.60179762822892, -5.5324961349596125]}}, {"type": "Feature", "properties": {"norad_id": 66352, "name": "STARLINK-35850", "group": "last-30-days", "lat": -7.060155497264437, "lon": 151.7605961436465, "alt_km": 366.5396453248877, "timestamp": "2025-12-02T08:59:31.502103+00:00", "meta": {"OBJECT_NAME": "STARLINK-35850", "OBJECT_ID": "2025-254E", "EPOCH": "2025-12-02T04:00:03.998880", "MEAN_MOTION": 15.68917896, "ECCENTRICITY": 0.0001231, "INCLINATION": 53.159, "RA_OF_ASC_NODE": 327.4561, "ARG_OF_PERICENTER": 82.3071, "MEAN_ANOMALY": 11.5226, "EPHEMERIS_TYPE": 0, "CLASSIFICATION_TYPE": "U", "NORAD_CAT_ID": 66352, "ELEMENT_SET_NO": 999, "REV_AT_EPOCH": 517, "BSTAR": -0.019642, "MEAN_MOTION_DOT": -0.02026575, "MEAN_MOTION_DDOT": 0}, "tle": {"line1": "1 66352U 25254E   25336.16671295 -.02026575  00000+0 -19642-1 0  9997", "line2": "2 66352  53.1590 327.4561 0001231  82.3071  11.5226 15.68917896  5173"}}, "geometry": {"type": "Point", "coordinates": [151.7605961436465, -7.060155497264437]}}]}